FLOCK 4BE-27            
1 60513U 24149AX  26068.75339182  .00011439  00000+0  36576-3 0  9992
2 60513  97.3862 150.6783 0002732 305.8980  54.2008 15.32593322 86906
STARLINK-34381          
1 64282U 25120AC  26068.42121923  .00017207  00000+0  59198-3 0  9999
2 64282  53.1580 118.0377 0001243  78.1724 281.9417 15.30186168 43853
